{"type": "FeatureCollection", "features": [ {"type": "Feature", "properties": {"norad_id": 28649, "name": "IRS-P5 (CARTOSAT-1)", "group": "resource", "lat": -65.43397102464115, "lon": 37.77661231840901, "alt_km": 604.074169485978, "timestamp": "2025-12-20T20:38:44.100608+00:00", "meta": {"OBJECT_NAME": "IRS-P5 (CARTOSAT-1)", "OBJECT_ID": "2005-017A", "EPOCH": "2025-12-19T23:59:49.912800", "MEAN_MOTION": 14.90427288, "ECCENTRICITY": 8.04e-05, "INCLINATION": 97.5486, "RA_OF_ASC_NODE": 20.0911, "ARG_OF_PERICENTER": 50.7358, "MEAN_ANOMALY": 309.3932, "EPHEMERIS_TYPE": 0, "CLASSIFICATION_TYPE": "U", "NORAD_CAT_ID": 28649, "ELEMENT_SET_NO": 999, "REV_AT_EPOCH": 11712, "BSTAR": 0.00010855912, "MEAN_MOTION_DOT": 1.006e-05, "MEAN_MOTION_DDOT": 0}, "tle": {"line1": "1 28649U 05017A   25353.99988325  .00001006  00000+0  10856-3 0  9992", "line2": "2 28649  97.5486  20.0911 0000804  50.7358 309.3932 14.90427288117129"}}, "geometry": {"type": "Point", "coordinates": [37.77661231840901, -65.43397102464115]}}, {"type": "Feature", "properties": {"norad_id": 28893, "name": "SINAH 1", "group": "resource", "lat": -54.552329980069615, "lon": -68.33580617658393, "alt_km": 693.267165477303, "timestamp": "2025-12-20T20:38:44.100619+00:00", "meta": {"OBJECT_NAME": "SINAH 1", "OBJECT_ID": "2005-043D", "EPOCH": "2025-12-20T14:39:15.166080", "MEAN_MOTION": 14.6397003, "ECCENTRICITY": 0.00156417, "INCLINATION": 98.2608, "RA_OF_ASC_NODE": 123.1891, "ARG_OF_PERICENTER": 113.9569, "MEAN_ANOMALY": 246.3273, "EPHEMERIS_TYPE": 0, "CLASSIFICATION_TYPE": "U", "NORAD_CAT_ID": 28893, "ELEMENT_SET_NO": 999, "REV_AT_EPOCH": 7439, "BSTAR": 6.2974647e-05, "MEAN_MOTION_DOT": 2.81e-06, "MEAN_MOTION_DDOT": 0}, "tle": {"line1": "1 28893U 05043D   25354.61059220  .00000281  00000+0  62975-4 0  9999", "line2": "2 28893  98.2608 123.1891 0015641 113.9569 246.3273 14.63970030 74394"}}, "geometry": {"type": "Point", "coordinates": [-68.33580617658393, -54.552329980069615]}}, {"type": "Feature", "properties": {"norad_id": 29079, "name": "EROS B", "group": "resource", "lat": 81.64447977864894, "lon": 50.37983508843186, "alt_km": 351.11104457633974, "timestamp": "2025-12-20T20:38:44.100629+00:00", "meta": {"OBJECT_NAME": "EROS B", "OBJECT_ID": "2006-014A", "EPOCH": "2025-12-20T14:09:52.878240", "MEAN_MOTION": 15.70656861, "ECCENTRICITY": 0.00035331, "INCLINATION": 97.3465, "RA_OF_ASC_NODE": 111.5523, "ARG_OF_PERICENTER": 311.196, "MEAN_ANOMALY": 48.8998, "EPHEMERIS_TYPE": 0, "CLASSIFICATION_TYPE": "U", "NORAD_CAT_ID": 29079, "ELEMENT_SET_NO": 999, "REV_AT_EPOCH": 9203, "BSTAR": 0.0010370614, "MEAN_MOTION_DOT": 0.00129533, "MEAN_MOTION_DDOT": 0}, "tle": {"line1": "1 29079U 06014A   25354.59019535  .00129533  00000+0  10371-2 0  9990", "line2": "2 29079  97.3465 111.5523 0003533 311.1960  48.8998 15.70656861 92031"}}, "geometry": {"type": "Point", "coordinates": [50.37983508843186, 81.64447977864894]}}, {"type": "Feature", "properties": {"norad_id": 29228, "name": "RESURS-DK 1", "group": "resource", "lat": 36.23335836784571, "lon": -114.68393390637216, "alt_km": 528.0830392793441, "timestamp": "2025-12-20T20:38:44.100640+00:00", "meta": {"OBJECT_NAME": "RESURS-DK 1", "OBJECT_ID": "2006-021A", "EPOCH": "2025-12-20T10:29:55.559904", "MEAN_MOTION": 15.12200316, "ECCENTRICITY": 0.00068697, "INCLINATION": 69.9339, "RA_OF_ASC_NODE": 81.9448, "ARG_OF_PERICENTER": 252.5475, "MEAN_ANOMALY": 107.494, "EPHEMERIS_TYPE": 0, "CLASSIFICATION_TYPE": "U", "NORAD_CAT_ID": 29228, "ELEMENT_SET_NO": 999, "REV_AT_EPOCH": 7554, "BSTAR": 0.00011186908, "MEAN_MOTION_DOT": 1.829e-05, "MEAN_MOTION_DDOT": 0}, "tle": {"line1": "1 29228U 06021A   25354.43744861  .00001829  00000+0  11187-3 0  9998", "line2": "2 29228  69.9339  81.9448 0006869 252.5475 107.4940 15.12200316 75544"}}, "geometry": {"type": "Point", "coordinates": [-114.68393390637216, 36.23335836784571]}}, {"type": "Feature", "properties": {"norad_id": 29268, "name": "ARIRANG-2 (KOMPSAT-2)", "group": "resource", "lat": 23.93945184904023, "lon": 6.437268391755756, "alt_km": 683.5275594464829, "timestamp": "2025-12-20T20:38:44.100651+00:00", "meta": {"OBJECT_NAME": "ARIRANG-2 (KOMPSAT-2)", "OBJECT_ID": "2006-031A", "EPOCH": "2025-12-20T13:48:01.780704", "MEAN_MOTION": 14.64499728, "ECCENTRICITY": 0.00131797, "INCLINATION": 97.8253, "RA_OF_ASC_NODE": 182.6657, "ARG_OF_PERICENTER": 282.1064, "MEAN_ANOMALY": 170.9425, "EPHEMERIS_TYPE": 0, "CLASSIFICATION_TYPE": "U", "NORAD_CAT_ID": 29268, "ELEMENT_SET_NO": 999, "REV_AT_EPOCH": 3533, "BSTAR": 3.0527632e-05, "MEAN_MOTION_DOT": 1.17e-06, "MEAN_MOTION_DDOT": 0}, "tle": {"line1": "1 29268U 06031A   25354.57502061  .00000117  00000+0  30528-4 0  9992", "line2": "2 29268  97.8253 182.6657 0013179 282.1064 170.9425 14.64499728 35338"}}, "geometry": {"type": "Point", "coordinates": [6.437268391755756, 23.93945184904023]}}, {"type": "Feature", "properties": {"norad_id": 29709, "name": "LAPAN-TUBSAT", "group": "resource", "lat": -11.236929207537173, "lon": -13.189873647960647, "alt_km": 611.3050063957298, "timestamp": "2025-12-20T20:38:44.100661+00:00", "meta": {"OBJECT_NAME": "LAPAN-TUBSAT", "OBJECT_ID": "2007-001A", "EPOCH": "2025-12-20T14:13:51.122784", "MEAN_MOTION": 14.85680548, "ECCENTRICITY": 0.0013378, "INCLINATION": 98.125, "RA_OF_ASC_NODE": 344.9109, "ARG_OF_PERICENTER": 50.9055, "MEAN_ANOMALY": 309.3347, "EPHEMERIS_TYPE": 0, "CLASSIFICATION_TYPE": "U", "NORAD_CAT_ID": 29709, "ELEMENT_SET_NO": 999, "REV_AT_EPOCH": 2463, "BSTAR": 6.0453968e-05, "MEAN_MOTION_DOT": 4.67e-06, "MEAN_MOTION_DDOT": 0}, "tle": {"line1": "1 29709U 07001A   25354.59295281  .00000467  00000+0  60454-4 0  9994", "line2": "2 29709  98.1250 344.9109 0013378  50.9055 309.3347 14.85680548 24633"}}, "geometry": {"type": "Point", "coordinates": [-13.189873647960647, -11.236929207537173]}}, {"type": "Feature", "properties": {"norad_id": 31113, "name": "HAIYANG-1B", "group": "resource", "lat": 74.75953010775856, "lon": -53.73730585083834, "alt_km": 776.7308095171647, "timestamp": "2025-12-20T20:38:44.100671+00:00", "meta": {"OBJECT_NAME": "HAIYANG-1B", "OBJECT_ID": "2007-010A", "EPOCH": "2025-12-20T11:53:46.556736", "MEAN_MOTION": 14.3096749, "ECCENTRICITY": 0.0013883, "INCLINATION": 98.3321, "RA_OF_ASC_NODE": 338.4536, "ARG_OF_PERICENTER": 15.9883, "MEAN_ANOMALY": 344.1736, "EPHEMERIS_TYPE": 0, "CLASSIFICATION_TYPE": "U", "NORAD_CAT_ID": 31113, "ELEMENT_SET_NO": 999, "REV_AT_EPOCH": 97507, "BSTAR": 4.2865318e-05, "MEAN_MOTION_DOT": 7.1e-07, "MEAN_MOTION_DDOT": 0}, "tle": {"line1": "1 31113U 07010A   25354.49567774  .00000071  00000+0  42865-4 0  9991", "line2": "2 31113  98.3321 338.4536 0013883  15.9883 344.1736 14.30967490975075"}}, "geometry": {"type": "Point", "coordinates": [-53.73730585083834, 74.75953010775856]}}, {"type": "Feature", "properties": {"norad_id": 31598, "name": "COSMO-SKYMED 1", "group": "resource", "lat": -59.346890090224555, "lon": -13.208619923946221, "alt_km": 587.9729301816733, "timestamp": "2025-12-20T20:38:44.100682+00:00", "meta": {"OBJECT_NAME": "COSMO-SKYMED 1", "OBJECT_ID": "2007-023A", "EPOCH": "2025-12-20T14:45:30.894624", "MEAN_MOTION": 14.95822457, "ECCENTRICITY": 0.00015715, "INCLINATION": 97.8837, "RA_OF_ASC_NODE": 180.0659, "ARG_OF_PERICENTER": 83.236, "MEAN_ANOMALY": 276.9039, "EPHEMERIS_TYPE": 0, "CLASSIFICATION_TYPE": "U", "NORAD_CAT_ID": 31598, "ELEMENT_SET_NO": 999, "REV_AT_EPOCH": 308, "BSTAR": 0.00025336875, "MEAN_MOTION_DOT": 2.77e-05, "MEAN_MOTION_DDOT": 0}, "tle": {"line1": "1 31598U 07023A   25354.61494091  .00002770  00000+0  25337-3 0  9999", "line2": "2 31598  97.8837 180.0659 0001571  83.2360 276.9039 14.95822457  3089"}}, "geometry": {"type": "Point", "coordinates": [-13.208619923946221, -59.346890090224555]}}, {"type": "Feature", "properties": {"norad_id": 31698, "name": "TERRASAR-X", "group": "resource", "lat": -37.26239795876999, "lon": 174.41267075756738, "alt_km": 515.6057941288009, "timestamp": "2025-12-20T20:38:44.100692+00:00", "meta": {"OBJECT_NAME": "TERRASAR-X", "OBJECT_ID": "2007-026A", "EPOCH": "2025-12-20T11:47:12.844032", "MEAN_MOTION": 15.19153914, "ECCENTRICITY": 0.00018738, "INCLINATION": 97.4453, "RA_OF_ASC_NODE": 359.7585, "ARG_OF_PERICENTER": 92.6145, "MEAN_ANOMALY": 267.5304, "EPHEMERIS_TYPE": 0, "CLASSIFICATION_TYPE": "U", "NORAD_CAT_ID": 31698, "ELEMENT_SET_NO": 999, "REV_AT_EPOCH": 2609, "BSTAR": 3.1273093e-05, "MEAN_MOTION_DOT": 5.9e-06, "MEAN_MOTION_DDOT": 0}, "tle": {"line1": "1 31698U 07026A   25354.49112088  .00000590  00000+0  31273-4 0  9997", "line2": "2 31698  97.4453 359.7585 0001873  92.6145 267.5304 15.19153914 26092"}}, "geometry": {"type": "Point", "coordinates": [174.41267075756738, -37.26239795876999]}}, {"type": "Feature", "properties": {"norad_id": 32060, "name": "WORLDVIEW-1 (WV-1)", "group": "resource", "lat": 18.412367078996716, "lon": 109.7519546565188, "alt_km": 492.18318377665855, "timestamp": "2025-12-20T20:38:44.100703+00:00", "meta": {"OBJECT_NAME": "WORLDVIEW-1 (WV-1)", "OBJECT_ID": "2007-041A", "EPOCH": "2025-12-20T14:15:38.310624", "MEAN_MOTION": 15.23880106, "ECCENTRICITY": 0.00034978, "INCLINATION": 97.3826, "RA_OF_ASC_NODE": 111.9639, "ARG_OF_PERICENTER": 10.3591, "MEAN_ANOMALY": 349.7718, "EPHEMERIS_TYPE": 0, "CLASSIFICATION_TYPE": "U", "NORAD_CAT_ID": 32060, "ELEMENT_SET_NO": 999, "REV_AT_EPOCH": 1567, "BSTAR": 0.00022574041, "MEAN_MOTION_DOT": 5.378e-05, "MEAN_MOTION_DDOT": 0}, "tle": {"line1": "1 32060U 07041A   25354.59419341  .00005378  00000+0  22574-3 0  9993", "line2": "2 32060  97.3826 111.9639 0003497  10.3591 349.7718 15.23880106 15672"}}, "geometry": {"type": "Point", "coordinates": [109.7519546565188, 18.412367078996716]}}]}